DELTA 2 R/B(1)          
1 20453U 90008B   26050.00784464  .00058599  00000+0  75027-3 0  9996
2 20453  35.6039 297.2064 0089457  84.2608 276.8318 15.53311943923221
COSMOS 2058             
1 20465U 90010A   26050.10845218  .00003798  00000+0  22462-3 0  9994
2 20465  82.4659  65.7335 0010926  46.1470 314.0661 15.11143396939435
SL-14 R/B               
1 20466U 90010B   26050.07154839  .00000379  00000+0  43035-4 0  9995
2 20466  82.5010 284.8799 0019972   5.7539 354.3902 14.83552204925725
SL-14 R/B               
1 20511U 90018B   26050.00391171  .00000416  00000+0  49217-4 0  9999
2 20511  82.5178 240.5578 0017057 149.3078 210.9138 14.82123294919813
HST                     
1 20580U 90037B   26049.56140830  .00006839  00000+0  22697-3 0  9996
2 20580  28.4682 170.4552 0001160 251.3948 108.6521 15.29162466770381
SL-16 R/B               
1 20625U 90046B   26050.17596640  .00000246  00000+0  15147-3 0  9997
2 20625  71.0018 336.7947 0015418 325.3173  34.6943 14.15013203845776
COSMOS 2084             
1 20663U 90055A   26050.05866696  .00002453  00000+0  18297-3 0  9998
2 20663  62.7901  39.1138 0019967 185.8726 174.2143 15.05522212933516
SL-6 R/B(2)             
1 20666U 90055D   26050.14905806  .00002032  00000+0  16217-3 0  9991
2 20666  62.7842 316.8974 0021997 342.2231  17.8096 15.03499545935401
SL-8 R/B                
1 20775U 90078B   26050.09229957  .00013080  00000+0  38357-3 0  9991
2 20775  82.9002 268.0291 0365927  76.3431 287.8248 14.88419148806537
SL-8 R/B                
1 21088U 91006B   26049.89535568  .00000023  00000+0  78196-5 0  9995
2 21088  82.9449 184.0174 0023753  88.5413  28.5165 13.77492363761489
OKEAN-3                 
1 21397U 91039A   26049.92632473  .00003891  00000+0  27420-3 0  9999
2 21397  82.5207 355.0153 0015585  39.2225 321.0127 15.04657393862215
COSMOS 2151             
1 21422U 91042A   26050.13920218  .00001620  00000+0  12783-3 0  9998
2 21422  82.4948 101.5731 0013929 119.3005 240.9613 15.00030411860418
