CCSDS_OMM_VERS = 2.0
CREATION_DATE  = 
ORIGINATOR     = 

OBJECT_NAME    = DELTA 2 R/B(1)
OBJECT_ID      = 1990-008B
CENTER_NAME    = EARTH
REF_FRAME      = TEME
TIME_SYSTEM    = UTC
MEAN_ELEMENT_THEORY = SGP/SGP4

EPOCH          = 2026-02-19T00:11:17.776896
MEAN_MOTION    = 15.53311943
ECCENTRICITY   = .0089457
INCLINATION    = 35.6039
RA_OF_ASC_NODE = 297.2064
ARG_OF_PERICENTER = 84.2608
MEAN_ANOMALY   = 276.8318

EPHEMERIS_TYPE = 0
CLASSIFICATION_TYPE = U
NORAD_CAT_ID   = 20453
ELEMENT_SET_NO = 999
REV_AT_EPOCH   = 92322
BSTAR          = .75027E-3
MEAN_MOTION_DOT = .58599E-3
MEAN_MOTION_DDOT = 0

CCSDS_OMM_VERS = 2.0
CREATION_DATE  = 
ORIGINATOR     = 

OBJECT_NAME    = COSMOS 2058
OBJECT_ID      = 1990-010A
CENTER_NAME    = EARTH
REF_FRAME      = TEME
TIME_SYSTEM    = UTC
MEAN_ELEMENT_THEORY = SGP/SGP4

EPOCH          = 2026-02-19T02:36:10.268352
MEAN_MOTION    = 15.11143396
ECCENTRICITY   = .0010926
INCLINATION    = 82.4659
RA_OF_ASC_NODE = 65.7335
ARG_OF_PERICENTER = 46.1470
MEAN_ANOMALY   = 314.0661

EPHEMERIS_TYPE = 0
CLASSIFICATION_TYPE = U
NORAD_CAT_ID   = 20465
ELEMENT_SET_NO = 999
REV_AT_EPOCH   = 93943
BSTAR          = .22462E-3
MEAN_MOTION_DOT = .3798E-4
MEAN_MOTION_DDOT = 0

CCSDS_OMM_VERS = 2.0
CREATION_DATE  = 
ORIGINATOR     = 

OBJECT_NAME    = SL-14 R/B
OBJECT_ID      = 1990-010B
CENTER_NAME    = EARTH
REF_FRAME      = TEME
TIME_SYSTEM    = UTC
MEAN_ELEMENT_THEORY = SGP/SGP4

EPOCH          = 2026-02-19T01:43:01.780896
MEAN_MOTION    = 14.83552204
ECCENTRICITY   = .0019972
INCLINATION    = 82.5010
RA_OF_ASC_NODE = 284.8799
ARG_OF_PERICENTER = 5.7539
MEAN_ANOMALY   = 354.3902

EPHEMERIS_TYPE = 0
CLASSIFICATION_TYPE = U
NORAD_CAT_ID   = 20466
ELEMENT_SET_NO = 999
REV_AT_EPOCH   = 92572
BSTAR          = .43035E-4
MEAN_MOTION_DOT = .379E-5
MEAN_MOTION_DDOT = 0

CCSDS_OMM_VERS = 2.0
CREATION_DATE  = 
ORIGINATOR     = 

OBJECT_NAME    = SL-14 R/B
OBJECT_ID      = 1990-018B
CENTER_NAME    = EARTH
REF_FRAME      = TEME
TIME_SYSTEM    = UTC
MEAN_ELEMENT_THEORY = SGP/SGP4

EPOCH          = 2026-02-19T00:05:37.971744
MEAN_MOTION    = 14.82123294
ECCENTRICITY   = .0017057
INCLINATION    = 82.5178
RA_OF_ASC_NODE = 240.5578
ARG_OF_PERICENTER = 149.3078
MEAN_ANOMALY   = 210.9138

EPHEMERIS_TYPE = 0
CLASSIFICATION_TYPE = U
NORAD_CAT_ID   = 20511
ELEMENT_SET_NO = 999
REV_AT_EPOCH   = 91981
BSTAR          = .49217E-4
MEAN_MOTION_DOT = .416E-5
MEAN_MOTION_DDOT = 0

CCSDS_OMM_VERS = 2.0
CREATION_DATE  = 
ORIGINATOR     = 

OBJECT_NAME    = HST
OBJECT_ID      = 1990-037B
CENTER_NAME    = EARTH
REF_FRAME      = TEME
TIME_SYSTEM    = UTC
MEAN_ELEMENT_THEORY = SGP/SGP4

EPOCH          = 2026-02-18T13:28:25.677120
MEAN_MOTION    = 15.29162466
ECCENTRICITY   = .000116
INCLINATION    = 28.4682
RA_OF_ASC_NODE = 170.4552
ARG_OF_PERICENTER = 251.3948
MEAN_ANOMALY   = 108.6521

EPHEMERIS_TYPE = 0
CLASSIFICATION_TYPE = U
NORAD_CAT_ID   = 20580
ELEMENT_SET_NO = 999
REV_AT_EPOCH   = 77038
BSTAR          = .22697E-3
MEAN_MOTION_DOT = .6839E-4
MEAN_MOTION_DDOT = 0

CCSDS_OMM_VERS = 2.0
CREATION_DATE  = 
ORIGINATOR     = 

OBJECT_NAME    = SL-16 R/B
OBJECT_ID      = 1990-046B
CENTER_NAME    = EARTH
REF_FRAME      = TEME
TIME_SYSTEM    = UTC
MEAN_ELEMENT_THEORY = SGP/SGP4

EPOCH          = 2026-02-19T04:13:23.496960
MEAN_MOTION    = 14.15013203
ECCENTRICITY   = .0015418
INCLINATION    = 71.0018
RA_OF_ASC_NODE = 336.7947
ARG_OF_PERICENTER = 325.3173
MEAN_ANOMALY   = 34.6943

EPHEMERIS_TYPE = 0
CLASSIFICATION_TYPE = U
NORAD_CAT_ID   = 20625
ELEMENT_SET_NO = 999
REV_AT_EPOCH   = 84577
BSTAR          = .15147E-3
MEAN_MOTION_DOT = .246E-5
MEAN_MOTION_DDOT = 0

CCSDS_OMM_VERS = 2.0
CREATION_DATE  = 
ORIGINATOR     = 

OBJECT_NAME    = COSMOS 2084
OBJECT_ID      = 1990-055A
CENTER_NAME    = EARTH
REF_FRAME      = TEME
TIME_SYSTEM    = UTC
MEAN_ELEMENT_THEORY = SGP/SGP4

EPOCH          = 2026-02-19T01:24:28.825344
MEAN_MOTION    = 15.05522212
ECCENTRICITY   = .0019967
INCLINATION    = 62.7901
RA_OF_ASC_NODE = 39.1138
ARG_OF_PERICENTER = 185.8726
MEAN_ANOMALY   = 174.2143

EPHEMERIS_TYPE = 0
CLASSIFICATION_TYPE = U
NORAD_CAT_ID   = 20663
ELEMENT_SET_NO = 999
REV_AT_EPOCH   = 93351
BSTAR          = .18297E-3
MEAN_MOTION_DOT = .2453E-4
MEAN_MOTION_DDOT = 0

CCSDS_OMM_VERS = 2.0
CREATION_DATE  = 
ORIGINATOR     = 

OBJECT_NAME    = SL-6 R/B(2)
OBJECT_ID      = 1990-055D
CENTER_NAME    = EARTH
REF_FRAME      = TEME
TIME_SYSTEM    = UTC
MEAN_ELEMENT_THEORY = SGP/SGP4

EPOCH          = 2026-02-19T03:34:38.616384
MEAN_MOTION    = 15.03499545
ECCENTRICITY   = .0021997
INCLINATION    = 62.7842
RA_OF_ASC_NODE = 316.8974
ARG_OF_PERICENTER = 342.2231
MEAN_ANOMALY   = 17.8096

EPHEMERIS_TYPE = 0
CLASSIFICATION_TYPE = U
NORAD_CAT_ID   = 20666
ELEMENT_SET_NO = 999
REV_AT_EPOCH   = 93540
BSTAR          = .16217E-3
MEAN_MOTION_DOT = .2032E-4
MEAN_MOTION_DDOT = 0

CCSDS_OMM_VERS = 2.0
CREATION_DATE  = 
ORIGINATOR     = 

OBJECT_NAME    = SL-8 R/B
OBJECT_ID      = 1990-078B
CENTER_NAME    = EARTH
REF_FRAME      = TEME
TIME_SYSTEM    = UTC
MEAN_ELEMENT_THEORY = SGP/SGP4

EPOCH          = 2026-02-19T02:12:54.682848
MEAN_MOTION    = 14.88419148
ECCENTRICITY   = .0365927
INCLINATION    = 82.9002
RA_OF_ASC_NODE = 268.0291
ARG_OF_PERICENTER = 76.3431
MEAN_ANOMALY   = 287.8248

EPHEMERIS_TYPE = 0
CLASSIFICATION_TYPE = U
NORAD_CAT_ID   = 20775
ELEMENT_SET_NO = 999
REV_AT_EPOCH   = 80653
BSTAR          = .38357E-3
MEAN_MOTION_DOT = .1308E-3
MEAN_MOTION_DDOT = 0

CCSDS_OMM_VERS = 2.0
CREATION_DATE  = 
ORIGINATOR     = 

OBJECT_NAME    = SL-8 R/B
OBJECT_ID      = 1991-006B
CENTER_NAME    = EARTH
REF_FRAME      = TEME
TIME_SYSTEM    = UTC
MEAN_ELEMENT_THEORY = SGP/SGP4

EPOCH          = 2026-02-18T21:29:18.730752
MEAN_MOTION    = 13.77492363
ECCENTRICITY   = .0023753
INCLINATION    = 82.9449
RA_OF_ASC_NODE = 184.0174
ARG_OF_PERICENTER = 88.5413
MEAN_ANOMALY   = 28.5165

EPHEMERIS_TYPE = 0
CLASSIFICATION_TYPE = U
NORAD_CAT_ID   = 21088
ELEMENT_SET_NO = 999
REV_AT_EPOCH   = 76148
BSTAR          = .78196E-5
MEAN_MOTION_DOT = .23E-6
MEAN_MOTION_DDOT = 0

CCSDS_OMM_VERS = 2.0
CREATION_DATE  = 
ORIGINATOR     = 

OBJECT_NAME    = OKEAN-3
OBJECT_ID      = 1991-039A
CENTER_NAME    = EARTH
REF_FRAME      = TEME
TIME_SYSTEM    = UTC
MEAN_ELEMENT_THEORY = SGP/SGP4

EPOCH          = 2026-02-18T22:13:54.456672
MEAN_MOTION    = 15.04657393
ECCENTRICITY   = .0015585
INCLINATION    = 82.5207
RA_OF_ASC_NODE = 355.0153
ARG_OF_PERICENTER = 39.2225
MEAN_ANOMALY   = 321.0127

EPHEMERIS_TYPE = 0
CLASSIFICATION_TYPE = U
NORAD_CAT_ID   = 21397
ELEMENT_SET_NO = 999
REV_AT_EPOCH   = 86221
BSTAR          = .2742E-3
MEAN_MOTION_DOT = .3891E-4
MEAN_MOTION_DDOT = 0

CCSDS_OMM_VERS = 2.0
CREATION_DATE  = 
ORIGINATOR     = 

OBJECT_NAME    = COSMOS 2151
OBJECT_ID      = 1991-042A
CENTER_NAME    = EARTH
REF_FRAME      = TEME
TIME_SYSTEM    = UTC
MEAN_ELEMENT_THEORY = SGP/SGP4

EPOCH          = 2026-02-19T03:20:27.068352
MEAN_MOTION    = 15.00030411
ECCENTRICITY   = .0013929
INCLINATION    = 82.4948
RA_OF_ASC_NODE = 101.5731
ARG_OF_PERICENTER = 119.3005
MEAN_ANOMALY   = 240.9613

EPHEMERIS_TYPE = 0
CLASSIFICATION_TYPE = U
NORAD_CAT_ID   = 21422
ELEMENT_SET_NO = 999
REV_AT_EPOCH   = 86041
BSTAR          = .12783E-3
MEAN_MOTION_DOT = .162E-4
MEAN_MOTION_DDOT = 0

